[{"OBJECT_NAME":"TIANQI-6","OBJECT_ID":"2020-076D","EPOCH":"2026-03-09T22:50:24.728640","MEAN_MOTION":15.06417552,"ECCENTRICITY":0.00106023,"INCLINATION":34.9994,"RA_OF_ASC_NODE":297.1791,"ARG_OF_PERICENTER":9.4595,"MEAN_ANOMALY":350.6312,"EPHEMERIS_TYPE":0,"CLASSIFICATION_TYPE":"U","NORAD_CAT_ID":46810,"ELEMENT_SET_NO":999,"REV_AT_EPOCH":29360,"BSTAR":0.00037023286,"MEAN_MOTION_DOT":5.552e-5,"MEAN_MOTION_DDOT":0},{"OBJECT_NAME":"STARLINK-5399","OBJECT_ID":"2022-175AG","EPOCH":"2026-03-09T21:40:42.225600","MEAN_MOTION":15.08839236,"ECCENTRICITY":0.00014734,"INCLINATION":53.219,"RA_OF_ASC_NODE":28.033,"ARG_OF_PERICENTER":103.279,"MEAN_ANOMALY":256.8367,"EPHEMERIS_TYPE":0,"CLASSIFICATION_TYPE":"U","NORAD_CAT_ID":54788,"ELEMENT_SET_NO":999,"REV_AT_EPOCH":18016,"BSTAR":2.8739169e-5,"MEAN_MOTION_DOT":1.69e-6,"MEAN_MOTION_DDOT":0}]
